id,display_name,alt_names,street,postnummer,ort,kommun,lan,lat,lon,svardighet
1,Bostadsrättsföreningen Träfiberplattan 2,,Östrandsvägen 68,12243,Stockholm,Stockholms kommun,Stockholms län,59.2830410,18.0474552,2
2,Danviksblick Brf,,Östra Finnbodavägen 11B,13132,Danviken,Nacka kommun,Stockholms län,59.3150826,18.1136684,2
3,London 1 Brf,,Östhammarsgatan 67,11559,Stockholm,Stockholms kommun,Stockholms län,59.3435726,18.1115261,2
4,Grand Mosebacke Brf,,Östgötagatan 25,11625,Stockholm,Stockholms kommun,Stockholms län,59.3158993,18.0762276,2
5,Djursborg 10 Brf,,Östermalmsgatan 97,11443,Stockholm,Stockholms kommun,Stockholms län,59.3391113,18.0889112,2
6,Vedbäraren 21 Brf,,Östermalmsgatan 96,11443,Stockholm,Stockholms kommun,Stockholms län,59.3388006,18.0888566,2
7,Brf Majtalaren nr 7,,Ängskärsgatan 6,11529,Stockholm,Stockholms kommun,Stockholms län,59.3426911,18.0970457,2
8,Majtalaren 6 Brf,,Ängskärsgatan 4,11529,Stockholm,Stockholms kommun,Stockholms län,59.3427900,18.0966460,2
9,Nybygget 19 Brf,,Åsögatan 165,11632,Stockholm,Stockholms kommun,Stockholms län,59.3144767,18.0851918,2
10,Husberget Brf,,Åsvägen 4,16954,Solna,Solna kommun,Stockholms län,59.3669033,17.9978369,2
11,Brf Rymmare 24,,Ålstensgatan,16765,Stockholm,Stockholms kommun,Stockholms län,59.3208816,17.9551130,2
12,Panorama Bredäng Brf,,Ålgrytevägen 122,12732,Stockholm,Stockholms kommun,Stockholms län,59.2983919,17.9284952,2
15,Tolken 1 Brf,,Ymsenvägen 10,12038,Stockholm,Stockholms kommun,Stockholms län,59.2973485,18.0683097,2
16,Balder Projektutveckling AB,,Warfvinges Väg,11217,Stockholm,Stockholms kommun,Stockholms län,59.3391247,18.0127279,2
18,Läraren 11 Brf,,Wallingatan 31,11124,Stockholm,Stockholms kommun,Stockholms län,59.3360319,18.0529824,2
19,Loket 23 Brf,,Völundsgatan 7,11321,Stockholm,Stockholms kommun,Stockholms län,59.3384773,18.0384098,2
20,Tendern 5 Brf,,Völundsgatan 3,11320,Stockholm,Stockholms kommun,Stockholms län,59.3379837,18.0381427,2
21,Henriksborg Brf,,Västra Finnbodavägen 9C,13171,Danviken,Nacka kommun,Stockholms län,59.3150526,18.1120655,2
22,Midgård 27 Brf,,Västmannagatan 85A,11326,Stockholm,Stockholms kommun,Stockholms län,59.3450810,18.0441268,2
23,Blåklinten 13 Brf,,Västmannagatan 70,11326,Stockholm,Stockholms kommun,Stockholms län,59.3439496,18.0456026,2
25,Bergslagen 25 Brf,,Västmannagatan 12,11124,Stockholm,Stockholms kommun,Stockholms län,59.3370251,18.0524634,2
26,Tull-kust,,Västerlånggatan 54,11129,Stockholm,Stockholms kommun,Stockholms län,59.3237564,18.0711212,2
27,Alba Stora Mossen 2,,Västerled,16758,Stockholm,Stockholms kommun,Stockholms län,59.3282103,17.9601663,2
28,Vänskapen 49 Brf,,Vänskapsvägen 49,11266,Stockholm,Stockholms kommun,Stockholms län,59.3217610,17.9865715,2
29,Essingeklippan 5 Brf,,Vänskapsvägen 36,11266,Stockholm,Stockholms kommun,Stockholms län,59.3215059,17.9863734,2
30,Brygghusen Brf,,Vågpiren,13561,Tyresö,Tyresö kommun,Stockholms län,59.2562445,18.2726598,2
31,Tendern 2 Brf,,Vulcanusgatan 4,11320,Stockholm,Stockholms kommun,Stockholms län,59.3381107,18.0372063,2
32,Vulcanusgatan 15 Brf,,Vulcanusgatan 15,11320,Stockholm,Stockholms kommun,Stockholms län,59.3390187,18.0374157,2
33,Vulcanusgatan 13 Brf,,Vulcanusgatan 13,11320,Stockholm,Stockholms kommun,Stockholms län,59.3388717,18.0373172,2
34,Loket 26 i Stockholm Brf,,Vulcanusgatan 10,11320,Stockholm,Stockholms kommun,Stockholms län,59.3388173,18.0377463,2
35,Langbo AB,,Vintrosagatan 15,12473,Stockholm,Stockholms kommun,Stockholms län,59.2618017,18.0177482,2
36,Stugan Brf,,Vintergatan 17,17269,Sundbybergs kommun,Sundbybergs kommun,Stockholms län,59.3632092,17.9751942,2
38,Vingården Brf,,Vingårdsgatan 7,11758,Stockholm,Stockholms kommun,Stockholms län,59.3070157,18.0306536,2
39,Vikingshill Herrgårdar Brf,,Vikingshillsvägen 41,13237,Boo,Nacka kommun,Stockholms län,59.3541565,18.2955393,2
40,Parklyckan vid Vårbergstoppen Brf,,Viggholmsvägen,12743,Vårberg,Stockholms kommun,Stockholms län,59.2721519,17.8828040,2
41,Flustret 12 Brf,,Vasavägen,16953,Solna,Solna kommun,Stockholms län,59.3647659,18.0024523,2
42,T2 Fabriksp brf,,Vasagatan,17267,Sundbybergs kommun,Sundbybergs kommun,Stockholms län,59.3618510,17.9655455,2
47,Granen 18 Brf,,Valhallavägen,11426,Stockholm,Stockholms kommun,Stockholms län,59.3452946,18.0711929,2
48,Roslagsbanan 11 Brf,,Valhallavägen 67,10041,Stockholm,Stockholms kommun,Stockholms län,59.3465255,18.0692503,2
49,Trasten 14 Brf,,Valhallavägen 56,11424,Stockholm,Stockholms kommun,Stockholms län,59.3469628,18.0660269,2
50,Brf Beckasinen 13,,Valhallavägen 14,11420,Stockholm,Stockholms kommun,Stockholms län,59.3490222,18.0613292,2
51,Bäfvern 20 Brf,,Valhallavägen 116,11443,Stockholm,Stockholms kommun,Stockholms län,59.3425637,18.0820990,2
52,BF Sture upa,,Valhallavägen 102,11449,Stockholm,Stockholms kommun,Stockholms län,59.3433237,18.0790515,2
53,Plommonträdet 5 Brf,,Valborgsmässovägen 20,12637,Stockholm,Stockholms kommun,Stockholms län,59.3005504,18.0001974,2
54,Tellusborgshus Brf,,Valborgsmässovägen 2,12637,Stockholm,Stockholms kommun,Stockholms län,59.3010278,18.0017051,2
55,Tappkranen Brf,,Ursviksvägen,17453,Sundbybergs kommun,Sundbybergs kommun,Stockholms län,59.3796499,17.9718187,2
56,Hugin 11 Brf,,Upplandsgatan 86,11323,Stockholm,Stockholms kommun,Stockholms län,59.3467137,18.0447073,2
57,Sleipner 103 Brf,,Upplandsgatan 73,11326,Stockholm,Stockholms kommun,Stockholms län,59.3447761,18.0462347,2
58,Bergslagen 18 Brf,,Upplandsgatan 13,11124,Stockholm,Stockholms kommun,Stockholms län,59.3375036,18.0534964,2
59,Brf Furiren nr 9,,Tysta Gatan 6,11520,Stockholm,Stockholms kommun,Stockholms län,59.3375154,18.0938348,2
60,Fyren i Nacka HSB Brf,,Turbinvägen 12,13160,Nacka,Nacka kommun,Stockholms län,59.3048531,18.1523153,2
61,Vanadislunden Brf,,Tulegatan 42,11354,Stockholm,Stockholms kommun,Stockholms län,59.3477731,18.0569107,2
62,Trygg upa Bf,,Tulegatan 32B,11355,Stockholm,Stockholms kommun,Stockholms län,59.3467010,18.0581202,2
63,Sparven 5 Brf,,Tulegatan 2,17269,Sundbybergs kommun,Sundbybergs kommun,Stockholms län,59.3642044,17.9777781,2
64,Hugin 28 Brf,,Tre Liljor 2A,11345,Stockholm,Stockholms kommun,Stockholms län,59.3477442,18.0453347,2
65,Torsdammen Brf,,Torsvikssvängen 1,18150,Lidingö,Lidingö kommun,Stockholms län,59.3645781,18.1245693,2
66,Kasernen 11 i Stockholm Brf,,Torstenssonsgatan 13,11456,Stockholm,Stockholms kommun,Stockholms län,59.3333377,18.0892738,2
67,Torsgränd 4 Brf,,Torsgränd 4,11361,Stockholm,Stockholms kommun,Stockholms län,59.3371822,18.0458284,2
68,Kungen 3 Brf,,Tornslingan 35,14260,Fållan,Huddinge kommun,Stockholms län,59.2298325,18.1328123,2
69,Hemtrefnad Brf,,Tomtebogatan 51,11342,Stockholm,Stockholms kommun,Stockholms län,59.3422966,18.0272816,2
70,Kadetten 19 Brf,,Tomtebogatan 38,11342,Stockholm,Stockholms kommun,Stockholms län,59.3421097,18.0286025,2
71,Volontären 9 i sthlm Brf,,Tomtebogatan 37,11341,Stockholm,Stockholms kommun,Stockholms län,59.3417561,18.0292017,2
72,Kadetten 16 Brf,,Tomtebogatan 32,11342,Stockholm,Stockholms kommun,Stockholms län,59.3418441,18.0295448,2
73,Bf Tomtebogatan 23 u.p.a,,Tomtebogatan 23,11342,Stockholm,Stockholms kommun,Stockholms län,59.3413210,18.0317920,2
74,Lyckohjulet 6 Brf,,Tombolavägen 5,12631,Stockholm,Stockholms kommun,Stockholms län,59.2963101,18.0075395,2
77,Turbinen 20 Brf,,Tobaksspinnargatan 4,11735,Stockholm,Stockholms kommun,Stockholms län,59.3181234,18.0306010,2
78,Pinnpojken Brf,,Tideliusgatan 53,11866,Stockholm,Stockholms kommun,Stockholms län,59.3095531,18.0645785,2
79,Ängsblomman Brf,,Tellusborgsvägen 75,12629,Stockholm,Stockholms kommun,Stockholms län,59.2982297,18.0025348,2
80,Tegnergatan 9 i Stockholm Brf,,Tegnérgatan 9,11140,Stockholm,Stockholms kommun,Stockholms län,59.3404496,18.0636743,2
81,Brf Blosset 1,,Tegnérgatan,11124,Stockholm,Stockholms kommun,Stockholms län,59.3372751,18.0513626,2
82,Törnet 4 Brf,,Tegnérgatan 17,11140,Stockholm,Stockholms kommun,Stockholms län,59.3400335,18.0620925,2
83,Mandeln Brf,,Tegelviksgatan 41,11641,Stockholm,Stockholms kommun,Stockholms län,59.3114550,18.0992320,2
84,Tegelbruket Brf,,Tegelbruksvägen 22,12634,Stockholm,Stockholms kommun,Stockholms län,59.3031898,18.0112245,2
85,Tavelsjön Brf,,Tavelsjövägen 2A,12059,Stockholm,Stockholms kommun,Stockholms län,59.3008008,18.0399846,2
86,Tavastgatan 31 (Stockholm) Brf,,Tavastgatan 31,11849,Stockholm,Stockholms kommun,Stockholms län,59.3194673,18.0590610,2
87,Tavastgatan 22 Brf,,Tavastgatan 22,11851,Stockholm,Stockholms kommun,Stockholms län,59.3197390,18.0608257,2
88,Tantotorget Brf,,Tantogatan 27,11741,Stockholm,Stockholms kommun,Stockholms län,59.3110469,18.0493168,2
90,Tallåsen Brf,,Tallåsvägen,18651,Vallentuna,Vallentuna kommun,Stockholms län,59.5115504,18.0691989,2
91,Tallbacken Brf,,Tallåsvägen 218,18651,Vallentuna,Vallentuna kommun,Stockholms län,59.5113981,18.0723095,2
92,Talliden 7-9 Brf,,Tallidsvägen 7,13137,Nacka,Nacka kommun,Stockholms län,59.3097605,18.1387397,2
93,Dagen Brf,,Söndagsvägen 30-34,12360,Stockholm,Stockholms kommun,Stockholms län,59.2571463,18.0948720,2
94,Flustret 4 Brf,,Södra Långgatan,16958,Solna,Solna kommun,Stockholms län,59.3649989,18.0039371,2
95,Brf Gamla Sturevägen,,Södra Kungsvägen,18132,Lidingö,Lidingö kommun,Stockholms län,59.3632970,18.1319180,2
96,Skogsgläntan 1 Brf,,Södervägen,12353,Högmora,Huddinge kommun,Stockholms län,59.2444512,18.0459004,2
97,Räfsan 10 Brf,,Södermannagatan 45,10668,Stockholm,Stockholms kommun,Stockholms län,59.3096240,18.0825873,2
98,Stockholm Ström 1 Brf,,Södermalmstorg 8,11846,Stockholm,Stockholms kommun,Stockholms län,59.3201009,18.0702504,2
99,Remonten 9 Brf,,Säterivägen 21,16872,Stockholm,Stockholms kommun,Stockholms län,59.3602690,17.9455581,2
100,Sågaren 16 Brf,,Sågargatan 16,11636,Stockholm,Stockholms kommun,Stockholms län,59.3140253,18.0910242,2
101,Brf Hemmet 14,,Sysslomansgatan 24,11240,Stockholm,Stockholms kommun,Stockholms län,59.3308796,18.0242522,2
102,Systern 6 Brf,,Sysslomansgatan 11,11240,Stockholm,Stockholms kommun,Stockholms län,59.3308045,18.0247580,2
104,Alma i Haga Norra Brf,,Sylvangatan,16975,Solna,Solna kommun,Stockholms län,59.3650960,18.0168138,2
105,Flygaren 19 Brf,,Sveavägen 78,11359,Stockholm,Stockholms kommun,Stockholms län,59.3401431,18.0595080,2
106,Adonis 1 Brf,,Sveavägen 62,11134,Stockholm,Stockholms kommun,Stockholms län,59.3388971,18.0606668,2
107,Svandammen nr 200 i Stockholm HSB Brf,,Svandammsvägen 41,12635,Stockholm,Stockholms kommun,Stockholms län,59.3011104,18.0067886,2
108,Rallarrosen Brf,,Svampskogsvägen,18655,Vallentuna,Vallentuna kommun,Stockholms län,59.5104015,18.0788154,2
109,Morkullan 24 Brf,,Surbrunnsgatan 8,11420,Stockholm,Stockholms kommun,Stockholms län,59.3470310,18.0635339,2
110,Killingen 15 Brf,,Surbrunnsgatan 40,11352,Stockholm,Stockholms kommun,Stockholms län,59.3451644,18.0562714,2
111,Målaren 3 Brf,,Surbrunnsgatan 19,11355,Stockholm,Stockholms kommun,Stockholms län,59.3463423,18.0614305,2
112,Nydal i Järfälla HSB Brf,,Sunnanvindsgränd,17771,Järfälla kommun,Järfälla kommun,Stockholms län,59.4424892,17.8389121,2
113,Ståltråden 1 Brf,,Ståltrådsvägen,16868,Stockholm,Stockholms kommun,Stockholms län,59.3461071,17.9737393,2
114,Styrmannen 38 Brf,,Styrmansgatan 18,11454,Stockholm,Stockholms kommun,Stockholms län,59.3337561,18.0863728,2
115,Utsikten Brf,,Studentbacken 1,11557,Stockholm,Stockholms kommun,Stockholms län,59.3485572,18.0942513,2
116,Strålgatan 21-23 Brf,,Strålgatan 21,11267,Stockholm,Stockholms kommun,Stockholms län,59.3239011,18.0057653,2
117,Klippan 9 Brf,,Strandvägen 9,11452,Stockholm,Stockholms kommun,Stockholms län,59.3318385,18.0808468,2
118,Strandvägspalatset Brf,,Strandvägen 7A,11456,Stockholm,Stockholms kommun,Stockholms län,59.3322298,18.0802376,2
119,Hornblåsaren nr 6 Brf,,Strandvägen 63,11523,Stockholm,Stockholms kommun,Stockholms län,59.3330335,18.0976642,2
120,Strandvägen 49 upa Bf,,Strandvägen 49,11523,Stockholm,Stockholms kommun,Stockholms län,59.3320368,18.0938244,2
121,Beväringen 1 Brf,,Strandvägen 43A,11456,Stockholm,Stockholms kommun,Stockholms län,59.3319864,18.0912175,2
122,Korporalen 9 Brf,,Strandvägen 29,11456,Stockholm,Stockholms kommun,Stockholms län,59.3318765,18.0868151,2
123,Saltsjöblick 17 Brf,,Strandvägen 19,11523,Stockholm,Stockholms kommun,Stockholms län,59.3318165,18.0841744,2
124,Skattungen 2 Brf,,Storsjövägen 37,12059,Stockholm,Stockholms kommun,Stockholms län,59.2983906,18.0395939,2
125,Lovisas hus i Älta Brf,,Storkällans väg 1,13834,Älta,Nacka kommun,Stockholms län,59.2561812,18.1987453,2
126,Neptunus 26 Brf,,Storgatan 29,11455,Stockholm,Stockholms kommun,Stockholms län,59.3345697,18.0863996,2
127,Gungan 6 Brf,,Stora Gungans väg,12231,Stockholm,Stockholms kommun,Stockholms län,59.2847688,18.0918124,2
130,Brf Duvboet,,Starrbäcksgatan 11A-D,17233,Sundbybergs kommun,Sundbybergs kommun,Stockholms län,59.3665985,17.9620925,2
131,Bostadsrättsföreningen Obligationen 2,,Sparbanksvägen 40-50,12932,Stockholm,Stockholms kommun,Stockholms län,59.2955468,17.9835792,2
133,Sjörövaren Brf,,Solberga Hagväg 6,12544,Stockholm,Stockholms kommun,Stockholms län,59.2801055,18.0096918,2
134,Stora Mossen 2 Brf,,Sobelgränd 14,16758,Stockholm,Stockholms kommun,Stockholms län,59.3288098,17.9572632,2
136,Snödroppsgränd Brf,,Snödroppsgränd,17565,Hässelby Villastad,Stockholms kommun,Stockholms län,59.3839188,17.8236440,2
137,Kubisten Brf,,Snickerigatan 10,12904,Stockholm,Stockholms kommun,Stockholms län,59.2992818,17.9890851,2
138,Modellvillan 21 Brf,,Slåttervägen 3,13542,Gimmersta,Tyresö kommun,Stockholms län,59.2396963,18.2466961,2
139,Kölhalningen 4 Brf,,Slipgatan 5,11737,Stockholm,Stockholms kommun,Stockholms län,59.3177308,18.0275763,2
140,Viggby ängar 2 Brf,,Skördevägen,18364,Täby,Täby kommun,Stockholms län,59.4422657,18.1007298,2
141,Aspvirket 6 Brf,,Skönviksvägen 286,12266,Stockholm,Stockholms kommun,Stockholms län,59.2721429,18.0537025,2
142,Närdingen 2 Brf,,Sköntorpsvägen 107,12053,Stockholm,Stockholms kommun,Stockholms län,59.3005690,18.0517427,2
143,Bondetorpet 80 Brf,,Skånegatan 80,11637,Stockholm,Stockholms kommun,Stockholms län,59.3122067,18.0797250,2
144,iProperty Skyttbrink 14 AB,,Skyttbrinksvägen,14752,Tumba,Botkyrka kommun,Stockholms län,59.1985294,17.8649273,2
145,Lidingöhuset nr1 Riksbyggen Bostadsrättsförening,,Skolvägen 18,18150,Lidingö,Lidingö kommun,Stockholms län,59.3652127,18.1284061,2
146,Krabaten 6 Brf,,Skeppargatan 6,11452,Stockholm,Stockholms kommun,Stockholms län,59.3322462,18.0818089,2
147,Brf Klippan 7,,Skeppargatan 5,11452,Stockholm,Stockholms kommun,Stockholms län,59.3322861,18.0814999,2
148,Kronkvarnen Brf,,Skeppargatan 47,11458,Stockholm,Stockholms kommun,Stockholms län,59.3366763,18.0848633,2
149,Eken nr 5 Bf UPA,,Skeppargatan 41,11445,Stockholm,Stockholms kommun,Stockholms län,59.3358786,18.0843131,2
150,Havsfrun 34 Brf,,Skeppargatan 35,11445,Stockholm,Stockholms kommun,Stockholms län,59.3354740,18.0839918,2
151,Imperiet Brf,,Skebokvarnsvägen,12452,Stockholm,Stockholms kommun,Stockholms län,59.2689652,18.0381006,2
152,Stockholmshus 12 Brf,,Skanörvägen 3,12152,Stockholm,Stockholms kommun,Stockholms län,59.2915630,18.1136916,2
153,Råstasjön Brf,,Sjövägen 2,16955,Solna,Solna kommun,Stockholms län,59.3690177,17.9943424,2
154,Brohuset i Liljeholmen Brf,,Sjöviksvägen,11757,Stockholm,Stockholms kommun,Stockholms län,59.3058324,18.0371604,2
155,Bergkanten i Liljeholmen Brf,,Sjöviksvägen 124,11757,Stockholm,Stockholms kommun,Stockholms län,59.3053130,18.0353889,2
156,Båtturen 1 Brf,,Sjöfartsgatan 6,12062,Stockholm,Stockholms kommun,Stockholms län,59.3043646,18.0886401,2
157,Rosen 7 Brf,,Sigtunagatan 8,11322,Stockholm,Stockholms kommun,Stockholms län,59.3414635,18.0418190,2
158,Sigtunarosen 6 Brf,,Sigtunagatan 6,11322,Stockholm,Stockholms kommun,Stockholms län,59.3412420,18.0420384,2
159,Rosen 12 Brf,,Sigtunagatan 18,11322,Stockholm,Stockholms kommun,Stockholms län,59.3422115,18.0410780,2
160,Sicklastråket Brf,,Sicklastråket 23,13155,Nacka,Nacka kommun,Stockholms län,59.3058678,18.1187103,2
161,Järnlodet 20 Brf,,Sibyllegatan 9,11451,Stockholm,Stockholms kommun,Stockholms län,59.3344503,18.0784881,2
162,Storken 12 Brf,,Sibyllegatan 50A,11443,Stockholm,Stockholms kommun,Stockholms län,59.3409800,18.0841654,2
163,Noaks Ark Brf,,Selmedalsvägen 10,12937,Stockholm,Stockholms kommun,Stockholms län,59.3052961,17.9804579,2
164,Hägerstenshamnen nr 2 Brf,,Selmedalsringen 17-21,12936,Stockholm,Stockholms kommun,Stockholms län,59.3076943,17.9806342,2
165,Tumba Gärde Samfällighetsförening,,Sedelvägen 2,14740,Tumba,Botkyrka kommun,Stockholms län,59.2026513,17.8261980,2
166,Populus Brf,,Schlytersvägen 71,12649,Stockholm,Stockholms kommun,Stockholms län,59.3066960,17.9985432,2
167,Kryckan 8 Brf,,Schlytersvägen 41,12648,Stockholm,Stockholms kommun,Stockholms län,59.3062225,18.0054198,2
168,Magdalena 4 Brf,,Sankt Paulsgatan 18,11847,Stockholm,Stockholms kommun,Stockholms län,59.3180459,18.0664321,2
169,Loket 7 Brf,,Sankt Eriksplan 15,11320,Stockholm,Stockholms kommun,Stockholms län,59.3393254,18.0369512,2
170,Loket 8 Brf,,Sankt Eriksplan 13,11320,Stockholm,Stockholms kommun,Stockholms län,59.3392733,18.0373928,2
171,Porslinsbruket 17 Brf,,Sankt Eriksgatan 73,11320,Stockholm,Stockholms kommun,Stockholms län,59.3387401,18.0357703,2
172,Stockholm Gjutformen Brf,,Sankt Eriksgatan 7,11237,Stockholm,Stockholms kommun,Stockholms län,59.3294998,18.0291293,2
173,Roddaren 36 Brf,,Sankt Eriksgatan 52,11234,Stockholm,Stockholms kommun,Stockholms län,59.3358291,18.0338653,2
174,Lavetten 16 Brf,,Sankt Eriksgatan 22,11239,Stockholm,Stockholms kommun,Stockholms län,59.3315742,18.0311575,2
175,Göken 31 Brf,,Sankt Eriksgatan 16,11237,Stockholm,Stockholms kommun,Stockholms län,59.3305225,18.0304302,2
176,Göken 14 Brf,,Sankt Eriksgatan 14,11237,Stockholm,Stockholms kommun,Stockholms län,59.3303106,18.0302352,2
177,Göken 29 Brf,,Sankt Eriksgatan 12,11237,Stockholm,Stockholms kommun,Stockholms län,59.3301179,18.0300579,2
178,Gjutformen 2 Brf,,Sankt Eriksgatan 1,11237,Stockholm,Stockholms kommun,Stockholms län,59.3291559,18.0288121,2
179,Spetskålens Samfällighetsföreninng,,Sandviksvägen 70,16570,Hässelby strand,Stockholms kommun,Stockholms län,59.3725556,17.8203422,2
180,Lillstugan 2 Brf,,Sandstuguvägen,14763,Tumba,Botkyrka kommun,Stockholms län,59.1986009,17.8017523,2
181,Oporto 6 Brf,,Sandhamnsgatan 21,11559,Stockholm,Stockholms kommun,Stockholms län,59.3453825,18.1094211,2
182,Postsäcken 8 Brf,,Samaritgränd 3,11853,Stockholm,Stockholms kommun,Stockholms län,59.3164616,18.0551214,2
183,Rustiken Brf,,Salbyvägen 1,12434,Stockholm,Stockholms kommun,Stockholms län,59.2695454,18.0474685,2
184,Knoppen 22 Brf,,Sankt Göransgatan 76,11245,Stockholm,Stockholms kommun,Stockholms län,59.3336725,18.0295873,2
185,Karlberg 56 Brf,,Rörstrandsgatan 56B,11338,Stockholm,Stockholms kommun,Stockholms län,59.3424331,18.0265818,2
186,Volontären 20 Brf,,Rörstrandsgatan 40,11338,Stockholm,Stockholms kommun,Stockholms län,59.3410838,18.0282827,2
187,Volontären 17 Brf,,Rörstrandsgatan 34,11338,Stockholm,Stockholms kommun,Stockholms län,59.3409235,18.0292353,2
188,Silvertallen Brf,,Rörläggarvägen,16834,Stockholm,Stockholms kommun,Stockholms län,59.3317796,17.9455266,2
189,HSB Fatet i Stockholm Brf,,Rödabergsgatan 12,11330,Stockholm,Stockholms kommun,Stockholms län,59.3442813,18.0342600,2
190,Råsundavägen 51 Brf,,Råsundavägen 51,16958,Hagalund,Solna kommun,Stockholms län,59.3651555,18.0064417,2
191,Sladden 4 och 7 Brf,,Råsundavägen 45,17122,Hagalund,Solna kommun,Stockholms län,59.3646867,18.0084240,2
192,Stugan 6 Brf,,Råstensgatan 6,17232,Sundbybergs kommun,Sundbybergs kommun,Stockholms län,59.3626659,17.9742131,2
193,Solstugan i Fredhäll Brf,,Rålambsvägen 69,11256,Stockholm,Stockholms kommun,Stockholms län,59.3312054,17.9984944,2
194,Brf Näktergalen nr 28,,Rådmansgatan 9,11431,Stockholm,Stockholms kommun,Stockholms län,59.3432844,18.0696277,2
195,Kungsbacken 12 i Stockholm Brf,,Rådmansgatan 57,11360,Stockholm,Stockholms kommun,Stockholms län,59.3397312,18.0565691,2
196,Planen 3 Brf,,Ryttargatan 1A,16951,Råsunda,Solna kommun,Stockholms län,59.3641828,17.9979865,2
197,Brf Kroken 11,,Rutger Fuchsgatan,11667,Stockholm,Stockholms kommun,Stockholms län,59.3074111,18.0786606,2
198,Sanningen Brf,,Rusthållarvägen,12841,Stockholm,Stockholms kommun,Stockholms län,59.2804506,18.1268479,2
199,Gästfriheten Brf,,Rusthållarvägen,12843,Stockholm,Stockholms kommun,Stockholms län,59.2762763,18.1283074,2
200,Poppeln 2 Brf,,Runebergsgatan 12,11429,Stockholm,Stockholms kommun,Stockholms län,59.3410784,18.0692435,2
202,Ingemar 8 Brf,,Roslagsgatan 40,11354,Stockholm,Stockholms kommun,Stockholms län,59.3486715,18.0579274,2
203,Rosvik Brf,,Roslagsgatan 39,11354,Stockholm,Stockholms kommun,Stockholms län,59.3489023,18.0573445,2
204,Roslagsgatan 29 Brf,,Roslagsgatan 29,11354,Stockholm,Stockholms kommun,Stockholms län,59.3480524,18.0581605,2
205,Vilan 10 Brf,,Roslagsgatan 27,11354,Stockholm,Stockholms kommun,Stockholms län,59.3478760,18.0583298,2
206,Postsäcken Brf,,Rosenlundsgatan 24,11864,Stockholm,Stockholms kommun,Stockholms län,59.3163130,18.0557717,2
207,Tapeten 1 Brf,,Ringvägen 8,11726,Stockholm,Stockholms kommun,Stockholms län,59.3177355,18.0499588,2
208,Nummerhästen Gärdet Brf,,Rindögatan 4,11535,Stockholm,Stockholms kommun,Stockholms län,59.3475572,18.0941241,2
209,Karteschen nr 2 Brf,,Rindögatan 25,11535,Stockholm,Stockholms kommun,Stockholms län,59.3457107,18.0991932,2
210,Spelet 1 Brf,,Riddargatan 55,11457,Stockholm,Stockholms kommun,Stockholms län,59.3326334,18.0917953,2
211,Lupinen i Haninge HSB Brf,,Ribby allé 64,13741,Västerhaninge,Haninge kommun,Stockholms län,59.1209082,18.1141407,2
213,Registret Brf,,Registervägen,16830,Stockholm,Stockholms kommun,Stockholms län,59.3369334,17.9521711,2
214,Flåren Brf,,Ralångsvägen 6,12050,Stockholm,Stockholms kommun,Stockholms län,59.2938541,18.0601402,2
215,Arkaden Sundbyberg Brf,,Prästgårdsgatan,17232,Sundbybergs kommun,Sundbybergs kommun,Stockholms län,59.3623325,17.9743991,2
216,Essinge Brygga Brf,,Primusgatan 70,11262,Stockholm,Stockholms kommun,Stockholms län,59.3229787,18.0024747,2
217,Essinge Kaj Brf,,Primusgatan 58,11267,Stockholm,Stockholms kommun,Stockholms län,59.3236330,18.0013934,2
218,Primusgaraget Samfällighetsförening,,Primusgatan 54,11262,Stockholm,Stockholms kommun,Stockholms län,59.3239831,18.0015145,2
219,Brf Essinge Udde 1,,Primusgatan 100,11267,Stockholm,Stockholms kommun,Stockholms län,59.3225855,18.0057178,2
220,Stockelden Bandhagen Brf,,Porlabacken 9,12470,Stockholm,Stockholms kommun,Stockholms län,59.2621419,18.0221799,2
221,Päronträdet 11 Brf,,Pontonjärgatan 4,11222,Stockholm,Stockholms kommun,Stockholms län,59.3284682,18.0381652,2
222,Mälarstrand Brf,,Pontonjärgatan 30,11235,Stockholm,Stockholms kommun,Stockholms län,59.3295761,18.0298117,2
223,Vårdtornet i Stockholm HSB Brf,,Polhemsgatan 27,11232,Stockholm,Stockholms kommun,Stockholms län,59.3333109,18.0378617,2
224,Jernet 7 Brf,,Ploggatan 10,11636,Stockholm,Stockholms kommun,Stockholms län,59.3132935,18.0919643,2
225,Härolden nr 38 Brf,,Pipersgatan 26,11228,Stockholm,Stockholms kommun,Stockholms län,59.3317686,18.0465035,2
226,Brunnsvikens Park Brf,,Pipers väg 165,17072,Bergshamra,Solna kommun,Stockholms län,59.3778547,18.0335680,2
227,Flygmekanikern i Stockholm HSB Brf,,Pilvingegatan,12835,Stockholm,Stockholms kommun,Stockholms län,59.2690783,18.1280790,2
228,Morellträdet 5 (6173),,Pilgatan 21,11212,Stockholm,Stockholms kommun,Stockholms län,59.3299814,18.0394811,2
229,Hundgården Samfällighetsförening,,Persikogatan,16563,Hässelby strand,Stockholms kommun,Stockholms län,59.3626847,17.8314923,2
230,Polarstjärnan Brf,,Per Lindeströms Väg 84,12146,Stockholm,Stockholms kommun,Stockholms län,59.2973271,18.1027162,2
231,Sjöfararen 4 Brf,,Per Lindeströms Väg 121,12146,Stockholm,Stockholms kommun,Stockholms län,59.2958992,18.1053656,2
232,Paviljongen i Huddinge Brf,,Patron Pehrs väg,14135,Huddinge,Huddinge kommun,Stockholms län,59.2359784,17.9772621,2
233,Ursholmen Brf,,Paternostervägen 92,12149,Stockholm,Stockholms kommun,Stockholms län,59.2907693,18.1058255,2
234,Måseskär 3 Brf,,Paternostervägen 46,12149,Stockholm,Stockholms kommun,Stockholms län,59.2911699,18.1006579,2
235,Oljemålningen nr 1 Brf,,Pastellvägen 8,12136,Stockholm,Stockholms kommun,Stockholms län,59.2928212,18.0865576,2
236,Bananen 11 Brf,,Parmmätargatan 9,11221,Stockholm,Stockholms kommun,Stockholms län,59.3289923,18.0471201,2
237,Barkborren 9 Brf,,Palandergatan 17,12137,Stockholm,Stockholms kommun,Stockholms län,59.2966869,18.0887092,2
239,Brf Gräshoppan 2,,Olaus Magnus Väg,12126,Stockholm,Stockholms kommun,Stockholms län,59.2983525,18.0859772,2
240,Ekoparken i Solna Brf,,Odlingsvägen,17076,Bergshamra,Solna kommun,Stockholms län,59.3787567,18.0383517,2
241,Nebulosan 16 Brf,,Odengatan 89,11324,Stockholm,Stockholms kommun,Stockholms län,59.3416337,18.0465203,2
242,Karlavagnen 11 Brf,,Odengatan 75,11328,Stockholm,Stockholms kommun,Stockholms län,59.3424277,18.0497244,2
243,Roslagen 4 Brf,,Odengatan 31,11356,Stockholm,Stockholms kommun,Stockholms län,59.3451291,18.0606415,2
244,Brf Lövsångaren 3,,Odengatan 21,11424,Stockholm,Stockholms kommun,Stockholms län,59.3458497,18.0635598,2
245,Trasten 19 Brf,,Odengatan 12,11424,Stockholm,Stockholms kommun,Stockholms län,59.3463063,18.0642429,2
246,Näckrosen i Solna,,Näckrosvägen 5,16937,Solna,Solna kommun,Stockholms län,59.3690522,17.9858725,2
247,Slagrutan Brf,,Näckrosvägen 31A,16937,Solna,Solna kommun,Stockholms län,59.3691617,17.9837140,2
248,HSB Bostadsrättsförening Fagerliden,,Nyängsvägen 6-8,14630,Tullinge,Botkyrka kommun,Stockholms län,59.2079638,17.9065525,2
249,Tullingedal Brf,,Nyängsvägen 4,14630,Tullinge,Botkyrka kommun,Stockholms län,59.2075286,17.9060539,2
250,Alba Stora Mossen,,Nyängsvägen,16758,Stockholm,Stockholms kommun,Stockholms län,59.3310676,17.9583536,2
251,Åskbollen Brf,,Nynäsvägen 306,12234,Stockholm,Stockholms kommun,Stockholms län,59.2862951,18.0884295,2
252,Rådjuret u.p.a Bf,,Nybrogatan 73,11449,Stockholm,Stockholms kommun,Stockholms län,59.3401824,18.0814670,2
253,Brf Nybrogatan 63,,Nybrogatan 63,11449,Stockholm,Stockholms kommun,Stockholms län,59.3390530,18.0805866,2
254,Brunfisken 24 Brf,,Nybrogatan 37,11439,Stockholm,Stockholms kommun,Stockholms län,59.3364088,18.0785282,2
255,Järnlodet 9 Brf,,Nybrogatan 26,11439,Stockholm,Stockholms kommun,Stockholms län,59.3356572,18.0782596,2
256,Adlern Mindre Brf,,Norrtullsgatan 9,11329,Stockholm,Stockholms kommun,Stockholms län,59.3417797,18.0519259,2
257,Norrtullsgatan 61 Brf,,Norrtullsgatan 61,11345,Stockholm,Stockholms kommun,Stockholms län,59.3488552,18.0449190,2
258,Hugin 2 Brf,,Norrtullsgatan 51,11345,Stockholm,Stockholms kommun,Stockholms län,59.3470350,18.0467205,2
259,Kejsarkronan nr 9 Brf,,Norrtullsgatan 21,11327,Stockholm,Stockholms kommun,Stockholms län,59.3436233,18.0500955,2
260,Urnan 27 Brf,,Norrbackagatan 54,11334,Stockholm,Stockholms kommun,Stockholms län,59.3429053,18.0316691,2
261,Skålen 16-17 Brf,,Norra Stationsgatan 117,11334,Stockholm,Stockholms kommun,Stockholms län,59.3437723,18.0283803,2
262,Pontonen 1 Brf,,Norr Mälarstrand 68,11235,Stockholm,Stockholms kommun,Stockholms län,59.3282673,18.0331107,2
263,Vattuormen nr 33 Brf,,Norr Mälarstrand 26,11220,Stockholm,Stockholms kommun,Stockholms län,59.3268586,18.0448013,2
264,Grönland 23 Brf,,Nordenskiöldsgatan 86,11521,Stockholm,Stockholms kommun,Stockholms län,59.3227041,18.1011204,2
265,Harpan 20 Brf,,Narvavägen 29,11460,Stockholm,Stockholms kommun,Stockholms län,59.3362106,18.0904713,2
266,Pennan 22 Brf,,Möregatan 6,11829,Stockholm,Stockholms kommun,Stockholms län,59.3118769,18.0698248,2
267,Läskpapperet i Stockholm HSB Brf,,Mölndalsbacken 2,12266,Stockholm,Stockholms kommun,Stockholms län,59.2698953,18.0597016,2
268,Parklinden i Söderdalen Brf,,Mäldgränd 3,17741,Järfälla kommun,Järfälla kommun,Stockholms län,59.4160286,17.8309633,2
270,Skogslinnéan Brf,,Murkelvägen 9,19251,Sollentuna kommun,Sollentuna kommun,Stockholms län,59.4399549,17.9743430,2
271,Stora Mossen 4 Brf,,Mosskroken 8,16758,Stockholm,Stockholms kommun,Stockholms län,59.3301587,17.9589342,2
272,Hällens Park Brf,,Morängatan 20d,74147,Alsike,Knivsta kommun,Uppsala län,59.7594444,17.7757164,2
273,Kajplats Kvarnholmen Brf,,Mjölnarvägen,13136,Nacka,Nacka kommun,Stockholms län,59.3174330,18.1364210,2
274,Sprängskottet Brf,,Minnebergsvägen 12,16741,Stockholm,Stockholms kommun,Stockholms län,59.3362763,17.9872770,2
275,Radiusfabriken Brf,,Midsommargränd 11,12629,Stockholm,Stockholms kommun,Stockholms län,59.2988714,18.0048645,2
276,Bolinders Terrass Brf,,Maskinistvägen,17669,Järfälla kommun,Järfälla kommun,Stockholms län,59.4554085,17.8010126,2
277,Entréhuset Brf,,Marieviksgatan 38,11760,Stockholm,Stockholms kommun,Stockholms län,59.3087584,18.0282661,2
278,Tegelladan 1 Brf,,Maria Sandels Gränd 2,11229,Stockholm,Stockholms kommun,Stockholms län,59.3337009,18.0433890,2
279,Bergsgruvan Större 50 i Stockholm Brf,,Maria Prästgårdsgata 37,11851,Stockholm,Stockholms kommun,Stockholms län,59.3152150,18.0579554,2
280,Fatbursbrunnen i Stockholm HSB Brf,,Maria Prästgårdsgata 19,11855,Stockholm,Stockholms kommun,Stockholms län,59.3159071,18.0623916,2
281,Fatbursbrunnen 8 Brf,,Maria Prästgårdsgata 17,11852,Stockholm,Stockholms kommun,Stockholms län,59.3159419,18.0626882,2
282,Brf Mono,,Maria Bangata 2,11853,Stockholm,Stockholms kommun,Stockholms län,59.3140429,18.0554457,2
283,Malmparken 1 Brf,,Malmvägen 14C,19160,Sollentuna kommun,Sollentuna kommun,Stockholms län,59.4272253,17.9448242,2
284,Johannes Plan 1-3 Brf,,Malmskillnadsgatan 49,11138,Stockholm,Stockholms kommun,Stockholms län,59.3375015,18.0645703,2
285,Tellusborg HSB i Stockholm Brf,,Majstångsvägen,12633,Stockholm,Stockholms kommun,Stockholms län,59.3030220,18.0089948,2
286,Ranka Brf,,Maja Snis gata 2,13451,Gustavsberg,Värmdö kommun,Stockholms län,59.3204036,18.3869925,2
287,Lövriket Brf,,Lövåsvägen 21,16733,Stockholm,Stockholms kommun,Stockholms län,59.3378261,17.9657726,2
288,Lillys Kvarter Brf,,Lövkojsgränd,16575,Hässelby Villastad,Stockholms kommun,Stockholms län,59.3796293,17.8141327,2
289,T1 Fabriksp Brf,,Löfströms allé,17275,Sundbybergs kommun,Sundbybergs kommun,Stockholms län,59.3653442,17.9564950,2
291,Bf Bulten u.p.a,,Långholmsgatan 13,11733,Stockholm,Stockholms kommun,Stockholms län,59.3169809,18.0332925,2
292,Bulten 22 Brf,,Långholmsgatan 11,11733,Stockholm,Stockholms kommun,Stockholms län,59.3171361,18.0332059,2
294,Essinge Terrass Brf,,Luxgatan 25,11267,Stockholm,Stockholms kommun,Stockholms län,59.3235187,18.0048384,2
295,Luxgaragets Samfällighetsförening,,Luxgatan,11267,Stockholm,Stockholms kommun,Stockholms län,59.3235990,18.0049486,2
296,Essinge Park Brf,,Luxgatan 15,11267,Stockholm,Stockholms kommun,Stockholms län,59.3234403,18.0068551,2
297,Luntmakargatan 63 Brf,,Luntmakargatan 63,11357,Stockholm,Stockholms kommun,Stockholms län,59.3403770,18.0604554,2
298,Jägaren Brf,,Luntmakargatan 54,11358,Stockholm,Stockholms kommun,Stockholms län,59.3403611,18.0606378,2
299,Den Lilla Oxen Brf,,Luntmakargatan 36,11134,Stockholm,Stockholms kommun,Stockholms län,59.3387937,18.0622524,2
300,Ludvigsberg i Stockholm Brf,,Ludvigsbergsgatan 17-19,11825,Stockholm,Stockholms kommun,Stockholms län,59.3195467,18.0546018,2
301,Rösjön i Sollentuna Brf,,Lomvägen 30,19256,Sollentuna kommun,Danderyds kommun,Stockholms län,59.4306306,18.0027432,2
302,Sjöhästen i Sollentuna Brf,,Lomvägen 27,19256,Sollentuna kommun,Danderyds kommun,Stockholms län,59.4309642,18.0007464,2
303,Brf Stadshusparken 2,,Ljusdalsgatan,16274,Stockholm,Stockholms kommun,Stockholms län,59.3528205,17.8845802,2
304,Hornblåsaren nr 28 Brf,,Linnégatan 86,11523,Stockholm,Stockholms kommun,Stockholms län,59.3340121,18.0954910,2
305,Harpan 31 Brf,,Linnégatan 77,11460,Stockholm,Stockholms kommun,Stockholms län,59.3354423,18.0893790,2
307,Laxöringen 1 Brf,,Linnégatan 25-27,11445,Stockholm,Stockholms kommun,Stockholms län,59.3372915,18.0803666,2
308,Lindvallsplan 4 Brf,,Lindvallsplan 4,11736,Stockholm,Stockholms kommun,Stockholms län,59.3164052,18.0283627,2
309,Fasanen 4 Brf,,Lindhagensgatan 59,11243,Stockholm,Stockholms kommun,Stockholms län,59.3327815,18.0174097,2
310,Adjunkten 4 Brf,,Lidköpingsvägen 23,12139,Stockholm,Stockholms kommun,Stockholms län,59.2925648,18.0977461,2
311,Adjunkten 5 Brf,,Lidköpingsvägen 17,12139,Stockholm,Stockholms kommun,Stockholms län,59.2923458,18.0970292,2
312,Vinkännaren 1 Brf,,Lantgårdsvägen 3A,19274,Sollentuna kommun,Sollentuna kommun,Stockholms län,59.4619265,17.8925201,2
313,Tåget Brf,,Körsbärsvägen 6,11420,Stockholm,Stockholms kommun,Stockholms län,59.3489898,18.0652437,2
314,Parkstråket Brf,,Källtorpsvägen,18371,Täby,Täby kommun,Stockholms län,59.4352880,18.0808172,2
315,Hejaren 8 Brf,,Kyrkogatan 7,17878,Sundbybergs kommun,Sundbybergs kommun,Stockholms län,59.3647165,17.9709345,2
316,Brf Astraea,,Kungstensgatan 55,11430,Stockholm,Stockholms kommun,Stockholms län,59.3398225,18.0517798,2
317,Palmträdet 5 Brf,,Kungstensgatan 28B,11357,Stockholm,Stockholms kommun,Stockholms län,59.3416432,18.0583926,2
318,Glasberget Brf,,Kungsklippan 11,11224,Stockholm,Stockholms kommun,Stockholms län,59.3300525,18.0470292,2
319,Pagen 15 Brf,,Kungsholmsgatan 22,11228,Stockholm,Stockholms kommun,Stockholms län,59.3315499,18.0450050,2
320,Kungsholms strand 165 Brf,,Kungsholms Strand 165,11249,Stockholm,Stockholms kommun,Stockholms län,59.3382848,18.0250751,2
321,Isbrytaren 28 Brf,,Kungsholms Strand 163,11248,Stockholm,Stockholms kommun,Stockholms län,59.3382960,18.0254630,2
322,S:t Eriks Strand Brf,,Kungsholms Strand 105,11321,Stockholm,Stockholms kommun,Stockholms län,59.3356882,18.0399778,2
323,Vattuormen nordost Brf,,Kungsholms Hamnplan 7,11221,Stockholm,Stockholms kommun,Stockholms län,59.3277543,18.0461921,2
324,Sköndal i Stockholm Brf HSB,,Kubbegatan 59,12867,Stockholm,Stockholms kommun,Stockholms län,59.2549423,18.1119999,2
325,Krukmakareberget Brf,,Krukmakargatan 50,11726,Stockholm,Stockholms kommun,Stockholms län,59.3164669,18.0486560,2
326,Krukis 27 Brf,,Krukmakargatan 27,11821,Stockholm,Stockholms kommun,Stockholms län,59.3170876,18.0548845,2
327,Nora Brf Kungsholmen,,Kronobergsgatan 16,11233,Stockholm,Stockholms kommun,Stockholms län,59.3351171,18.0350865,2
328,Kalkonen i Stockholm HSB Brf,,Kristinebergsvägen 1,11218,Stockholm,Stockholms kommun,Stockholms län,59.3334745,18.0156295,2
329,Mälarstrand 1 Brf,,Kristinebergs Strand 31,11213,Stockholm,Stockholms kommun,Stockholms län,59.3371036,17.9985399,2
330,Kristallen 9 Brf,,Kristallvägen,12678,Stockholm,Stockholms kommun,Stockholms län,59.2901597,17.9979008,2
331,Akvamarinen 1 Brf (6702),,Kristallvägen 2,12678,Stockholm,Stockholms kommun,Stockholms län,59.2907622,17.9990852,2
332,Kostern Brf,,Kostervägen,18135,Lidingö,Lidingö kommun,Stockholms län,59.3563878,18.1317492,2
333,Komedianten 6 Brf,,Kommendörsgatan 4,11436,Stockholm,Stockholms kommun,Stockholms län,59.3392622,18.0763528,2
334,Kocksgatan 42 Brf,,Kocksgatan 42,11631,Stockholm,Stockholms kommun,Stockholms län,59.3143948,18.0813570,2
335,Båtsmannen 25 Brf,,Kocksgatan 23,11624,Stockholm,Stockholms kommun,Stockholms län,59.3141496,18.0782909,2
336,Bordduken 6,,Klädesvägen 16,16876,Stockholm,Stockholms kommun,Stockholms län,59.3386680,17.9408355,2
337,Fabriken 4 Brf,,Klostervägen,18276,Danderyds kommun,Danderyds kommun,Stockholms län,59.3863113,18.0416769,2
338,Minnet nr 13 Brf,,Klintbacken,16866,Stockholm,Stockholms kommun,Stockholms län,59.3600306,17.9548197,2
341,Brf Huddingeugnen,,Kavlevägen,14159,Huddinge,Huddinge kommun,Stockholms län,59.2288891,17.9356457,2
342,GA - Stadshuslunden och EM,,Kavallerivägen 4G,17458,Sundbybergs kommun,Sundbybergs kommun,Stockholms län,59.3734041,17.9389086,2
343,Stadshuslunden Brf,,Kavallerivägen,17458,Sundbybergs kommun,Sundbybergs kommun,Stockholms län,59.3737835,17.9388941,2
344,Brf Sturen Mindre 4,,Katarina Västra Kyrkogata 4,11625,Stockholm,Stockholms kommun,Stockholms län,59.3167278,18.0766559,2
345,Katarina Västra Skola Brf,,Katarina Västra Kyrkogata 10,11625,Stockholm,Stockholms kommun,Stockholms län,59.3160311,18.0770061,2
346,Vintertullstorget 1 Brf,,Katarina Bangata 79,11642,Stockholm,Stockholms kommun,Stockholms län,59.3080438,18.0906806,2
347,Gjuteriet 9 Brf,,Karlsviksgatan 7,11240,Stockholm,Stockholms kommun,Stockholms län,59.3302811,18.0285711,2
348,Snötäcket Brf,,Karlskronavägen,12152,Stockholm,Stockholms kommun,Stockholms län,59.2933768,18.1143230,2
349,BRF Urnan 23,,Karlbergsvägen 62,11341,Stockholm,Stockholms kommun,Stockholms län,59.3425542,18.0333275,2
350,Flora UPA bf,,Karlbergsvägen 56,11337,Stockholm,Stockholms kommun,Stockholms län,59.3426227,18.0350684,2
351,Brf Verdandi 2,,Karlbergsvägen 46A,11337,Stockholm,Stockholms kommun,Stockholms län,59.3428149,18.0381366,2
352,Kamelian 15 Brf,,Karlbergsvägen 35,11362,Stockholm,Stockholms kommun,Stockholms län,59.3424215,18.0396251,2
353,Rosen 13 & 14 Brf,,Karlbergsvägen,11327,Stockholm,Stockholms kommun,Stockholms län,59.3431075,18.0501781,2
354,Näktergalen 26 Brf,,Karlavägen 15,11431,Stockholm,Stockholms kommun,Stockholms län,59.3427670,18.0687519,2
355,Furiren nr 6 Brf,,Karlavägen 101,11522,Stockholm,Stockholms kommun,Stockholms län,59.3370413,18.0941447,2
356,Trumslagaren 11 686 Brf,,Karlaplan 14,11520,Stockholm,Stockholms kommun,Stockholms län,59.3380999,18.0912452,2
357,Brf Vega Skogsgläntan,,Karahavsvägen 12,13658,Vega,Haninge kommun,Stockholms län,59.1842258,18.1278418,2
358,Central Brf i Stockholm,,Kapellgränd 6,11621,Stockholm,Stockholms kommun,Stockholms län,59.3162401,18.0738884,2
359,Brofästet 1 Brf,,Kanalvägen 18A-D,18426,Åkersberga,Österåkers kommun,Stockholms län,59.4816233,18.2913047,2
360,Vingråen 6 Brf,,Kammakargatan 46,11160,Stockholm,Stockholms kommun,Stockholms län,59.3376659,18.0563180,2
361,Kammakargatan 18 Brf,,Kammakargatan 18,11140,Stockholm,Stockholms kommun,Stockholms län,59.3392732,18.0624716,2
362,Norra Parken 2 i Näsby Slottspark Brf,,Kadettens gata,18352,Täby,Täby kommun,Stockholms län,59.4261747,18.0888704,2
364,Fornkullen Brf,,Jämtlandsgatan 152,16257,Vällingby,Stockholms kommun,Stockholms län,59.3628350,17.8682079,2
365,Fyrfärgspennan 1 Brf,,Jämtlandsgatan 150,16257,Vällingby,Stockholms kommun,Stockholms län,59.3624790,17.8688131,2
366,Brf Solbacka Park,,Junovägen,76165,Norrtälje,Norrtälje kommun,Stockholms län,59.7718147,18.7354556,2
367,Artilleriberget nr 3 Brf,,Jungfrugatan 58,11531,Stockholm,Stockholms kommun,Stockholms län,59.3423523,18.0864609,2
368,Päronträdet 14 Brf,,John Ericssonsgatan 14,11222,Stockholm,Stockholms kommun,Stockholms län,59.3290687,18.0379605,2
369,Arlaparken Brf,,Johanneshovsvägen 102,12050,Stockholm,Stockholms kommun,Stockholms län,59.2932668,18.0589145,2
370,L-O Malmström m.fl Vildmannen 2,,Jakobsbergsgatan 8,11434,Stockholm,Stockholms kommun,Stockholms län,59.3349406,18.0717929,2
371,HSB Brf Portalen 242,,Jakob Westinsgatan 7,11220,Stockholm,Stockholms kommun,Stockholms län,59.3277148,18.0446865,2
372,Vattuormen 24 Brf,,Jakob Westinsgatan 1A,11220,Stockholm,Stockholms kommun,Stockholms län,59.3269661,18.0443728,2
373,Ingenting nr 11 Brf,,Ingentingsgatan,17159,Solna,Solna kommun,Stockholms län,59.3527524,18.0020596,2
374,Blåkråkan 2 Brf,,Ingemarsgatan 8,11354,Stockholm,Stockholms kommun,Stockholms län,59.3492199,18.0566945,2
375,Inedal 3 Brf,,Inedalsgatan 25,11232,Stockholm,Stockholms kommun,Stockholms län,59.3362298,18.0364827,2
376,Västersol Brf,,Inedalsgatan 23,11232,Stockholm,Stockholms kommun,Stockholms län,59.3360593,18.0364000,2
377,Vårdtornet 8 Brf,,Inedalsgatan 2,11232,Stockholm,Stockholms kommun,Stockholms län,59.3335456,18.0355070,2
378,Stenbrottet 9 Brf,,Inedalsgatan 1,11232,Stockholm,Stockholms kommun,Stockholms län,59.3335699,18.0351965,2
379,Skutan 16 Brf,,Industrigatan 9,11246,Stockholm,Stockholms kommun,Stockholms län,59.3367500,18.0297137,2
380,Isbrytaren 46 Brf,,Igeldammsgatan 20,11249,Stockholm,Stockholms kommun,Stockholms län,59.3370110,18.0246847,2
382,Norra Djurgårdsstaden Brf,,Högviltsgatan 3,11545,Stockholm,Stockholms kommun,Stockholms län,59.3565476,18.0854005,2
383,Timmerhögen Brf,,Högbergsbacken 1,11855,Stockholm,Stockholms kommun,Stockholms län,59.3149351,18.0614292,2
384,Skruven 11 Brf,,Högalidsgatan 52B,11733,Stockholm,Stockholms kommun,Stockholms län,59.3181193,18.0333332,2
385,Skruven nr 10 UPA Bf,,Högalidsgatan 50B,11733,Stockholm,Stockholms kommun,Stockholms län,59.3181470,18.0341189,2
386,Mejseln i Stockholm HSB:s Brf,,Högalidsgatan 46A,11731,Stockholm,Stockholms kommun,Stockholms län,59.3181830,18.0350855,2
387,Muttern 17 Brf,,Högalidsgatan 42A,11730,Stockholm,Stockholms kommun,Stockholms län,59.3182314,18.0364522,2
388,Brandstationen i Järfälla Brf,,Hästskovägen,17539,Järfälla kommun,Järfälla kommun,Stockholms län,59.4309280,17.8337746,2
389,Origo Brf,,Häradsgränd,18370,Täby,Täby kommun,Stockholms län,59.4435527,18.0684752,2
390,Vasastadens Montesoriskola (ideel förening),,Hälsingegatan 21,11331,Stockholm,Stockholms kommun,Stockholms län,59.3435537,18.0414864,2
391,Åby allé Brf,,Häggatan,18636,Vallentuna,Vallentuna kommun,Stockholms län,59.5322479,18.0866778,2
392,Lilla Korpen Brf,,Hägerstensvägen 118,12649,Stockholm,Stockholms kommun,Stockholms län,59.3059479,18.0031732,2
393,Vandraren i Stockholm HSB Brf,,Hägerstensvägen 111,12649,Stockholm,Stockholms kommun,Stockholms län,59.3055423,18.0049653,2
394,Pilgrimen 1-5 Brf,,Hägerstensvägen 101,12648,Stockholm,Stockholms kommun,Stockholms län,59.3055510,18.0064811,2
395,Sirius i Hägerneholm Brf,,Hägerneholmsvägen 7A,18760,Ullna strand,Täby kommun,Stockholms län,59.4704499,18.1185448,2
396,Tallkronan i Bro Brf,,Husbytorpsvägen 8A,19733,Bro,Upplands-Bro kommun,Stockholms län,59.5084437,17.6193384,2
397,Skogsgatan i Bro Brf,,Husbytorpsvägen 29C,19733,Bro,Upplands-Bro kommun,Stockholms län,59.5092292,17.6178509,2
398,Åkeriet Brf,,Humblegatan 5A,17263,Sundbybergs kommun,Sundbybergs kommun,Stockholms län,59.3578327,17.9735416,2
399,Mullvaden Andra nr 22 Brf,,Hornsgatan 63,11823,Stockholm,Stockholms kommun,Stockholms län,59.3177065,18.0540506,2
400,Sågen 7 Brf,,Hornsgatan 180,11734,Stockholm,Stockholms kommun,Stockholms län,59.3152225,18.0324407,2
401,Kungsbacken 5 Brf,,Holländargatan 29,11359,Stockholm,Stockholms kommun,Stockholms län,59.3393869,18.0575646,2
402,Irländaren i Stockholm HSB  Brf,,Holbergsgatan 65,16845,Blackeberg,Stockholms kommun,Stockholms län,59.3461960,17.8825577,2
403,Smålänningen 3 Brf,,Holbergsgatan 20,16849,Stockholm,Stockholms kommun,Stockholms län,59.3464583,17.8887724,2
406,Vi i femman Brf,,Heleneborgsgatan 5BC,11732,Stockholm,Stockholms kommun,Stockholms län,59.3191952,18.0383851,2
407,Borren 350 Brf,,Heleneborgsgatan 38,11732,Stockholm,Stockholms kommun,Stockholms län,59.3194186,18.0360834,2
408,Gjallarhornet Brf,,Heimdalsgatan 7,11327,Stockholm,Stockholms kommun,Stockholms län,59.3447090,18.0476502,2
409,Brf Polarforskaren 13,,Hasselquistvägen 27,12146,Stockholm,Stockholms kommun,Stockholms län,59.2967366,18.1030321,2
411,Generalens allé i Riksten Brf,,Hanvedens allé 33,14635,Tullinge,Botkyrka kommun,Stockholms län,59.1833365,17.9238001,2
412,Lavetten 15 Brf,,Hantverkargatan 76,11239,Stockholm,Stockholms kommun,Stockholms län,59.3309288,18.0321524,2
413,Brf Opalen 5,,Hannebergsgatan 16,16961,Solna,Solna kommun,Stockholms län,59.3575706,18.0049702,2
414,La Dolce Vita Brf,,Hammarbyterrassen 39,12062,Stockholm,Stockholms kommun,Stockholms län,59.3048011,18.0926514,2
415,Brf Demo,,Hammarbybacken,12145,Stockholm,Stockholms kommun,Stockholms län,59.2980000,18.0867853,2
416,Sjöstadsesplanaden 1,,Hammarby Allé 24,12030,Stockholm,Stockholms kommun,Stockholms län,59.3028514,18.0894896,2
417,Björkslingan Brf,,Halmstadsvägen 44,12153,Stockholm,Stockholms kommun,Stockholms län,59.2895241,18.1202763,2
418,Hallebergsvägen 34-36 Brf,,Hallebergsvägen 34,16737,Stockholm,Stockholms kommun,Stockholms län,59.3386285,17.9843481,2
419,Tiveden 1 Brf,,Hallebergsvägen 23,16737,Stockholm,Stockholms kommun,Stockholms län,59.3383570,17.9834858,2
420,Hallandsgatan 24 Brf,,Hallandsgatan 24,11857,Stockholm,Stockholms kommun,Stockholms län,59.3103691,18.0669741,2
421,Riddarsporren 9 Brf,,Hagagatan 5,11349,Stockholm,Stockholms kommun,Stockholms län,59.3443459,18.0524065,2
422,Nejlikan UPA BF,,Hagagatan 20,11349,Stockholm,Stockholms kommun,Stockholms län,59.3455817,18.0516001,2
423,Pyramiden 1 Brf,,Götgatan 73A-B,11830,Stockholm,Stockholms kommun,Stockholms län,59.3114508,18.0749962,2
424,Haga Nova Brf,,Gävlegatan 26,11365,Stockholm,Stockholms kommun,Stockholms län,59.3466878,18.0342535,2
425,Inverness Garagefastighet,,Gärdes Backe,18276,Danderyds kommun,Danderyds kommun,Stockholms län,59.3875884,18.0412536,2
427,Flustret 19 Brf,,Gustafsvägen,16958,Solna,Solna kommun,Stockholms län,59.3646459,18.0040970,2
428,Klosterstranden Riksbyggen Brf,,Gustaf De Lavals väg 18,13160,Nacka,Nacka kommun,Stockholms län,59.3042009,18.1514691,2
429,Norra Eken Brf,,Gunnarskogsgatan 10,12333,Stockholm,Stockholms kommun,Stockholms län,59.2459346,18.0844013,2
430,Kogaren 1 Brf,,Gullmarsvägen,12039,Stockholm,Stockholms kommun,Stockholms län,59.2998072,18.0685369,2
431,Blåsippan i Ursvik Brf,,Grönlingens väg 2-4,17462,Sundbybergs kommun,Sundbybergs kommun,Stockholms län,59.3855967,17.9560481,2
432,Brf Ekenbergsparken,,Gröndalsvägen 111,11771,Stockholm,Stockholms kommun,Stockholms län,59.3150462,17.9992184,2
433,Lillholmen i Stockholm HSB Brf,,Gräsholmsvägen,12748,Stockholm,Stockholms kommun,Stockholms län,59.2801021,17.9031823,2
434,Ritaren 5 & 12 Brf,,Grindsgatan 35,11857,Stockholm,Stockholms kommun,Stockholms län,59.3092101,18.0673829,2
435,Gnistan 4 Brf,,Grevgatan 57,11458,Stockholm,Stockholms kommun,Stockholms län,59.3375186,18.0873205,2
436,Brf Gnistan 5,,Grevgatan 55,11458,Stockholm,Stockholms kommun,Stockholms län,59.3373719,18.0872096,2
437,Kumlet 18 Brf,,Grevgatan 53,11458,Stockholm,Stockholms kommun,Stockholms län,59.3370103,18.0869234,2
438,Kumlet 19 Brf,,Grevgatan 51,11458,Stockholm,Stockholms kommun,Stockholms län,59.3367783,18.0867418,2
439,Lyran 10 Brf,,Grevgatan 48,11458,Stockholm,Stockholms kommun,Stockholms län,59.3362325,18.0866556,2
440,Kumlet 21 Brf,,Grevgatan 47,11458,Stockholm,Stockholms kommun,Stockholms län,59.3364538,18.0864869,2
441,Neptunus 33 Brf 5878,,Grevgatan 42,11454,Stockholm,Stockholms kommun,Stockholms län,59.3355206,18.0860902,2
442,Neptunus 5 Brf,,Grevgatan 40,11454,Stockholm,Stockholms kommun,Stockholms län,59.3354283,18.0860180,2
443,Lindormen 5 och 6 Brf,,Grevgatan 22,11454,Stockholm,Stockholms kommun,Stockholms län,59.3337662,18.0847244,2
444,Vega No 1 UPA,,Grev Turegatan 54,10243,Stockholm,Stockholms kommun,Stockholms län,59.3394241,18.0788462,2
445,Kvarteret Tallbacken 2 Brf,,Grenvägen,13430,Gustavsberg,Värmdö kommun,Stockholms län,59.3241178,18.4000117,2
446,Hänggranen 1 Brf,,Granlidsvägen 2,17275,Sundbybergs kommun,Sundbybergs kommun,Stockholms län,59.3669879,17.9521524,2
447,Grankanalia Brf,,Granlidsvägen 18,17275,Sundbybergs kommun,Sundbybergs kommun,Stockholms län,59.3675197,17.9560641,2
448,Träsnittet 1 Brf,,Grafikvägen 28,12143,Stockholm,Stockholms kommun,Stockholms län,59.2972991,18.0762471,2
449,Skissen,,Grafikvägen 21,12143,Stockholm,Stockholms kommun,Stockholms län,59.2970334,18.0775102,2
450,Brf Södersiluetten,,Gotlandsgatan 67,11639,Stockholm,Stockholms kommun,Stockholms län,59.3103041,18.0807449,2
451,Fajansparken Brf,,Gjörwellsgatan,11258,Stockholm,Stockholms kommun,Stockholms län,59.3267369,18.0145328,2
452,Marketenteriet i Nacka brf,,Gjuterigränd,13161,Nacka,Nacka kommun,Stockholms län,59.3067712,18.1533122,2
453,Brf Skutan 26,,Gjutargatan 12,11247,Stockholm,Stockholms kommun,Stockholms län,59.3373051,18.0270753,2
454,Bäverpälsen Brf,,Gillerbacken 28,12464,Stockholm,Stockholms kommun,Stockholms län,59.2555052,18.0282479,2
456,Ängen i Örby Bostadsrättsförening,,Gamla Huddingevägen 451,12542,Stockholm,Stockholms kommun,Stockholms län,59.2737155,18.0213818,2
457,Brf Lättviktaren 26,,Gamla Huddingevägen 439,12542,Stockholm,Stockholms kommun,Stockholms län,59.2741883,18.0240426,2
458,Sevmund Brf,,Gamla Huddingevägen 417A,12542,Stockholm,Stockholms kommun,Stockholms län,59.2756915,18.0280413,2
459,Gambrinus 5 Brf,,Gambrinusgatan 5,11222,Stockholm,Stockholms kommun,Stockholms län,59.3303096,18.0376737,2
460,Brickbandet Brf,,Galonvägen,16874,Stockholm,Stockholms kommun,Stockholms län,59.3401608,17.9457802,2
461,Horisont Vega Brf,,Gaffelseglet 21,13656,Handen,Haninge kommun,Stockholms län,59.1848928,18.1384478,2
462,Solnahus nr 1 Brf,,Förrådsgatan 12,16939,Solna,Solna kommun,Stockholms län,59.3668478,17.9907489,2
463,Apeln Nr 7 Brf,,Förrådsgatan,16939,Solna,Solna kommun,Stockholms län,59.3657829,17.9897571,2
464,Flottiljen 2 Brf,,Fänriksvägen,17743,Järfälla kommun,Sollentuna kommun,Stockholms län,59.4181617,17.8678075,2
466,Toppklockan Brf,,Fågelsångsvägen,19144,Sollentuna kommun,Sollentuna kommun,Stockholms län,59.4214156,17.9495187,2
467,Garphyttans SFF,,Fågelhundsgatan 16,11545,Stockholm,Stockholms kommun,Stockholms län,59.3569995,18.0849338,2
468,Mälarutsikten Brf (Hässelby),,Fyrspannsgatan,16563,Hässelby strand,Stockholms kommun,Stockholms län,59.3608511,17.8322239,2
469,Fyrhöjden Brf,,Fyrskeppsvägen 94,12154,Stockholm,Stockholms kommun,Stockholms län,59.2871320,18.1104090,2
470,Ordonnansen 5 & 6 Brf,,Furusundsgatan 21,11539,Stockholm,Stockholms kommun,Stockholms län,59.3463867,18.1012469,2
471,Haubitsen 2 i Stockholm Brf,,Furusundsgatan 2,11535,Stockholm,Stockholms kommun,Stockholms län,59.3479349,18.0954277,2
472,Vattentornet 5 Brf,,Furusundsgatan 15,11539,Stockholm,Stockholms kommun,Stockholms län,59.3467452,18.0994341,2
473,Karteschen 6 Brf,,Furusundsgatan 12,11539,Stockholm,Stockholms kommun,Stockholms län,59.3469518,18.0975689,2
474,Brf Stadshusparken,,Funäsgatan 10,16274,Stockholm,Stockholms kommun,Stockholms län,59.3531711,17.8855888,2
475,Mifaso AB,,Fruängsgatan 51,12952,Stockholm,Stockholms kommun,Stockholms län,59.2846493,17.9637210,2
476,Väderkvarnen i Söderdalen Brf,,Frihetsvägen 2,17753,Järfälla kommun,Järfälla kommun,Stockholms län,59.4178335,17.8312069,2
477,Hemmet 9 Brf,,Fridhemsgatan 13,11240,Stockholm,Stockholms kommun,Stockholms län,59.3312913,18.0273759,2
478,Hängboken i Stockholm Brf,,Fridhemsgatan 1,11225,Stockholm,Stockholms kommun,Stockholms län,59.3300107,18.0261465,2
479,Åkerbäret 1 Brf,,Fridensborgsvägen 113,17062,Solna,Solna kommun,Stockholms län,59.3829616,17.9851216,2
480,Supernova Vega Brf,,Fribordsgränd 5,13655,Vega,Haninge kommun,Stockholms län,59.1858242,18.1377527,2
481,Insjön i Nacka HSB Brf,,Freyvägen 2A,13338,Saltsjöbaden,Nacka kommun,Stockholms län,59.2887565,18.2836204,2
482,Brf Valkyrian 5,,Frejgatan 58,11326,Stockholm,Stockholms kommun,Stockholms län,59.3435930,18.0420404,2
483,Brf Frej,,Frejgatan 42,11326,Stockholm,Stockholms kommun,Stockholms län,59.3445445,18.0457405,2
484,Inlandsisen 4 Brf,,Frejgatan 3,11420,Stockholm,Stockholms kommun,Stockholms län,59.3484708,18.0617833,2
485,Egen Härd Dalen 2 BF,,Fredsgatan 27,17274,Sundbybergs kommun,Sundbybergs kommun,Stockholms län,59.3674105,17.9654357,2
486,Brf Lispundet 15-23,,Fredrikslundsvägen 15,16834,Stockholm,Stockholms kommun,Stockholms län,59.3334696,17.9427813,2
487,Oscar Brf,,Fredrikshovsgatan 7,11523,Stockholm,Stockholms kommun,Stockholms län,59.3340907,18.0944440,2
489,Forshagagatan Brf,,Forshagagatan 4,12333,Stockholm,Stockholms kommun,Stockholms län,59.2466373,18.0896511,2
490,Rudan Större 5 Brf,,Folkungagatan 97,11628,Stockholm,Stockholms kommun,Stockholms län,59.3155608,18.0832401,2
491,Båtsmannen Större 78 Brf,,Folkungagatan 72,11622,Stockholm,Stockholms kommun,Stockholms län,59.3146329,18.0776736,2
492,Vägaren Brf,,Folkungagatan 56,11622,Stockholm,Stockholms kommun,Stockholms län,59.3143091,18.0751214,2
493,Fogdevägen Brf,,Fogdevägen 37,12841,Stockholm,Stockholms kommun,Stockholms län,59.2785425,18.1227945,2
494,Flädergården Brf,,Flädervägen,12134,Stockholm,Stockholms kommun,Stockholms län,59.2793305,18.1070031,2
495,Brf Kobran Telefonplan,,Flygelgatan 4,12628,Stockholm,Stockholms kommun,Stockholms län,59.2983368,18.0014634,2
496,Klädstrecket 24 Brf,,Flottbrovägen 23,11265,Stockholm,Stockholms kommun,Stockholms län,59.3228254,17.9905237,2
497,Linden 14 Brf,,Floragatan 7,11432,Stockholm,Stockholms kommun,Stockholms län,59.3420258,18.0748888,2
498,Ädelgranen Brf,,Floragatan 21,11432,Stockholm,Stockholms kommun,Stockholms län,59.3438470,18.0764017,2
499,Björken 11 Brf,,Floragatan 16,11432,Stockholm,Stockholms kommun,Stockholms län,59.3431374,18.0763355,2
500,Knoppen 11 Brf,,Fleminggatan 95,11245,Stockholm,Stockholms kommun,Stockholms län,59.3347096,18.0298423,2
501,Arbetaren 10 & 11 Brf,,Fleminggatan 87,11246,Stockholm,Stockholms kommun,Stockholms län,59.3344844,18.0315668,2
502,Korsningen 99 Brf,,Fleminggatan 85,11245,Stockholm,Stockholms kommun,Stockholms län,59.3344345,18.0319485,2
503,Brf Grinden 23,,Fleminggatan 77,11233,Stockholm,Stockholms kommun,Stockholms län,59.3342016,18.0337320,2
504,Stenbrottet 3 Brf,,Fleminggatan 71,11233,Stockholm,Stockholms kommun,Stockholms län,59.3340550,18.0348590,2
505,Dykaren 15 Brf,,Fleminggatan 70,11245,Stockholm,Stockholms kommun,Stockholms län,59.3352939,18.0270709,2
506,Skörden 2 HSB i Sthlm Brf,,Fleminggatan 35,11269,Stockholm,Stockholms kommun,Stockholms län,59.3331357,18.0418944,2
507,Knoppen 15 Brf,,Fleminggatan 103,11245,Stockholm,Stockholms kommun,Stockholms län,59.3348358,18.0288752,2
509,Berglandet i Nacka HSB Brf,,Finntorpsvägen 10,13136,Nacka,Nacka kommun,Stockholms län,59.3084315,18.1330503,2
510,Sjöfararen 5 Brf,,Finn Malmgrens väg 35,12138,Stockholm,Stockholms kommun,Stockholms län,59.2955859,18.1055018,2
511,Vikingaleden Brf,,Fingerörtsvägen 1,13138,Nacka,Nacka kommun,Stockholms län,59.3060434,18.1496286,2
512,Skuruberg i Nacka HSB Brf,,Fasanvägen 27,13144,Nacka,Nacka kommun,Stockholms län,59.3092675,18.2079973,2
513,Members Club Brf,,Evenemangsgatan 40,16955,Solna,Solna kommun,Stockholms län,59.3728707,17.9977895,2
514,Pressläktaren Brf,,Evenemangsgatan 30,16956,Solna,Solna kommun,Stockholms län,59.3720703,17.9984253,2
515,Skogsmarken 19 Brf,,Essingestråket 36,11266,Stockholm,Stockholms kommun,Stockholms län,59.3214622,17.9844262,2
516,Brf Liden 6,,Esplanaden 18,17268,Sundbybergs kommun,Sundbybergs kommun,Stockholms län,59.3640030,17.9672813,2
517,Eriksbergsparken Brf,,Eriksbergsgatan 40,11431,Stockholm,Stockholms kommun,Stockholms län,59.3420920,18.0659537,2
518,Asken nr 14 Brf,,Eriksbergsgatan 13,11431,Stockholm,Stockholms kommun,Stockholms län,59.3408006,18.0686293,2
519,Oxeln nr 9 Brf,,Erik Sandbergs gata 8,16939,Solna,Solna kommun,Stockholms län,59.3654526,17.9904577,2
520,Vida Gärdet Brf,,Erik Dahlbergsgatan 41-43,11530,Stockholm,Stockholms kommun,Stockholms län,59.3445929,18.0926987,2
521,Brf Biograf Paraden,,Erik Dahlbergsgatan 19,11530,Stockholm,Stockholms kommun,Stockholms län,59.3413459,18.0904435,2
522,Djursborg nr 3 Brf,,Erik Dahlbergsallén 7,11520,Stockholm,Stockholms kommun,Stockholms län,59.3394823,18.0900182,2
523,Brf Kornetten nr 4,,Erik Dahlbergsallén 11,11520,Stockholm,Stockholms kommun,Stockholms län,59.3402212,18.0896370,2
524,Tallgården Brf,,Engelbrektsgatan 12,11426,Stockholm,Stockholms kommun,Stockholms län,59.3434827,18.0724388,2
525,Spinnsidan 2 Brf,,Eldsbergagränd 1,12573,Stockholm,Stockholms kommun,Stockholms län,59.2870072,18.0325421,2
526,Ekoxen Nacka Brf,,Ekuddsvägen 25,13138,Nacka,Nacka kommun,Stockholms län,59.3059795,18.1422364,2
527,Sjöblick 2 Brf,,Ekholmsvägen,12748,Stockholm,Stockholms kommun,Stockholms län,59.2794110,17.9037865,2
528,Distanstuben 4 Brf,,Ejdervägen 56,12349,Stockholm,Stockholms kommun,Stockholms län,59.2494717,18.0602922,2
529,Wasa Brunn Brf,,Eastmansvägen,11324,Stockholm,Stockholms kommun,Stockholms län,59.3399084,18.0460455,2
530,Sjölejonet 1 och 2 Brf,,Döbelnsgatan 53,11357,Stockholm,Stockholms kommun,Stockholms län,59.3423698,18.0599727,2
531,Strandgården Brf,,Dånviksvägen,14461,Rönninge,Salems kommun,Stockholms län,59.1935717,17.7481532,2
532,Kanan Brf,,Duvgränd 6,17233,Sundbybergs kommun,Sundbybergs kommun,Stockholms län,59.3653561,17.9618370,2
533,Duvberget Brf,,Duvbergsvägen,14330,Vårby,Huddinge kommun,Stockholms län,59.2606294,17.8842482,2
534,Snöflingan 3,,Drottningholmsvägen,11219,Stockholm,Stockholms kommun,Stockholms län,59.3319170,18.0220122,2
535,Drakhemmet Brf,,Drottningholmsvägen 31,11240,Stockholm,Stockholms kommun,Stockholms län,59.3316816,18.0265167,2
536,Brf Barnhuset 3,,Drottninggatan,11136,Stockholm,Stockholms kommun,Stockholms län,59.3354427,18.0598597,2
537,Kungsbacken 14 Brf,,Drottninggatan 112,11160,Stockholm,Stockholms kommun,Stockholms län,59.3391904,18.0562378,2
538,Riksbyggen Ljuspunkten i Väsby Brf,,Drabantgatan,19433,Upplands Väsby,Upplands Väsby kommun,Stockholms län,59.5172595,17.9104297,2
539,Södra Parken 1 i Näsby Slottspark,,Dora Lamms gata,18352,Täby,Täby kommun,Stockholms län,59.4236894,18.0903917,2
542,Nyängen i Vendelsö Brf,,Djurgårdsvägen,13671,Vendelsö,Haninge kommun,Stockholms län,59.1956638,18.1857005,2
543,Disponenten i Stockholm Brf,,Disponentgatan 1,11261,Stockholm,Stockholms kommun,Stockholms län,59.3245629,18.0079296,2
544,Nyckeln i Nacka Brf,,Diligensvägen,13148,Nacka,Nacka kommun,Stockholms län,59.3156317,18.1728578,2
545,BoKlok Paradisängarna Brf,,Diakonvägen,19441,Upplands Väsby,Upplands Väsby kommun,Stockholms län,59.5099543,17.8869622,2
546,Östra Stationshusen Brf,,Diagonalen 2B,19546,Märsta,Sigtuna kommun,Stockholms län,59.6274177,17.8600833,2
547,De Geersgatan 8 Brf,,De Geersgatan 8,11529,Stockholm,Stockholms kommun,Stockholms län,59.3420342,18.0949850,2
548,David Bagare Brf,,David Bagares Gata 26B,11138,Stockholm,Stockholms kommun,Stockholms län,59.3371787,18.0655178,2
549,Norra Spinnhuset Brf,,David Bagares Gata 22-24,11138,Stockholm,Stockholms kommun,Stockholms län,59.3372221,18.0664033,2
550,Mattisborgens Samfällighetsförening,,Dartanjangs Gata 68,16871,Stockholm,Stockholms kommun,Stockholms län,59.3664266,17.9461516,2
551,Chateau Mattis Brf,,Dartanjangs Gata,16871,Stockholm,Stockholms kommun,Stockholms län,59.3644976,17.9452283,2
552,Vakteln 4-5 Brf 8706,,Danderydsgatan 28,11426,Stockholm,Stockholms kommun,Stockholms län,59.3446375,18.0711909,2
553,Valkyrian 23 Brf,,Dalagatan 41,11326,Stockholm,Stockholms kommun,Stockholms län,59.3449760,18.0421894,2
555,Framnäs 2 Brf,,Charlottenburgsvägen,16957,Solna,Solna kommun,Stockholms län,59.3657590,17.9990185,2
556,Körsbärsparken Brf,,Centrumvägen,15530,Nykvarn,Nykvarns kommun,Stockholms län,59.1793878,17.4302871,2
557,Brf Biblioteket,,Bältgatan 5,11520,Stockholm,Stockholms kommun,Stockholms län,59.3399683,18.0890450,2
558,Arvodet-Kvittensen Brf,,Bäckvägen 165,12933,Stockholm,Stockholms kommun,Stockholms län,59.3002576,17.9829139,2
559,Gutenberg 1450 Brf,,Bäckvägen 131,12934,Stockholm,Stockholms kommun,Stockholms län,59.3011225,17.9879699,2
560,Takten Brf,,Bygatan 42,19142,Sollentuna kommun,Sollentuna kommun,Stockholms län,59.4283853,17.9383381,2
561,Mjölner 15 Brf,,Byalagsvägen,14140,Huddinge,Huddinge kommun,Stockholms län,59.2548348,17.9958828,2
562,Kattryggen 19 Brf,,Brännkyrkagatan 40,11851,Stockholm,Stockholms kommun,Stockholms län,59.3193835,18.0613379,2
563,Ursvik 6 Brf,,Brännarvägen,17464,Sundbybergs kommun,Sundbybergs kommun,Stockholms län,59.3818205,17.9481404,2
564,Stengodset 5 Brf,,Bråvallagatan 5,11339,Stockholm,Stockholms kommun,Stockholms län,59.3386515,18.0344746,2
565,Översättningen 2-3 Brf,,Brålunden 16,16773,Stockholm,Stockholms kommun,Stockholms län,59.3314809,17.9314935,2
566,Pimpinella 4 Brf,,Brådstupsvägen 15,12939,Stockholm,Stockholms kommun,Stockholms län,59.3043021,17.9574552,2
567,Brotorps Entré Brf,,Brotorpsvägen,17062,Sundbybergs kommun,Sundbybergs kommun,Stockholms län,59.3835315,17.9795838,2
568,Silverlönnen Brf,,Brotorps allé,17441,Sundbybergs kommun,Sundbybergs kommun,Stockholms län,59.3837954,17.9773352,2
570,Banjon Brf,,Bridgevägen,12363,Fållan,Huddinge kommun,Stockholms län,59.2389502,18.1281409,2
571,Farsta Dal i Stockholm HSB Brf,,Brattforsgatan 1,12350,Stockholm,Stockholms kommun,Stockholms län,59.2381206,18.1005713,2
572,Brf Brahegatan 7,,Brahegatan 7B,11437,Stockholm,Stockholms kommun,Stockholms län,59.3376011,18.0757365,2
573,Brahe 40 Brf,,Brahegatan 40,10243,Stockholm,Stockholms kommun,Stockholms län,59.3409538,18.0787483,2
574,Hjorten 23 Brf,,Brahegatan 29,10243,Stockholm,Stockholms kommun,Stockholms län,59.3407001,18.0782043,2
575,Pahl 10 Brf,,Borgmästargatan 10A,11635,Stockholm,Stockholms kommun,Stockholms län,59.3143641,18.0863636,2
576,K2 Kista Torn Brf,,Borgarfjordsgatan 21,16453,Stockholm,Stockholms kommun,Stockholms län,59.4050226,17.9416059,2
578,Slottsparken i Upplands Bro Brf,,Bondhagsvägen 35,19737,Bro,Upplands-Bro kommun,Stockholms län,59.5033602,17.6187330,2
579,Gruvan 5 Brf,,Bondegatan 79,11636,Stockholm,Stockholms kommun,Stockholms län,59.3132086,18.0948728,2
580,Ked 15 Brf,,Bondegatan 64,11635,Stockholm,Stockholms kommun,Stockholms län,59.3137508,18.0864986,2
581,Keders 20 Brf,,Bondegatan 60,11635,Stockholm,Stockholms kommun,Stockholms län,59.3136745,18.0859247,2
582,Kråkhvilan Brf,,Bondegatan 55,11636,Stockholm,Stockholms kommun,Stockholms län,59.3139173,18.0895565,2
583,Bonden 13 brf,,Bondegatan 13,11623,Stockholm,Stockholms kommun,Stockholms län,59.3129522,18.0791120,2
584,Bolmensvägen 29-35 Brf,,Bolmensvägen 29,12050,Stockholm,Stockholms kommun,Stockholms län,59.2951344,18.0639251,2
585,Trålaren 2 Brf,,Bodalsvägen,18136,Lidingö,Lidingö kommun,Stockholms län,59.3500412,18.1388810,2
586,Blåsut 2 Brf,,Blåsutvägen 25,12135,Stockholm,Stockholms kommun,Stockholms län,59.2920905,18.0905049,2
587,B15 Förvaltning AB,,Blåsutvägen 15,12135,Stockholm,Stockholms kommun,Stockholms län,59.2930026,18.0900908,2
588,Fyrklövern Väsby Brf,,Blå gatan,19449,Upplands Väsby,Upplands Väsby kommun,Stockholms län,59.5163219,17.9124396,2
589,Kronbladet 1 Brf,,Blomsterkungsvägen,16577,Hässelby Villastad,Stockholms kommun,Stockholms län,59.3904242,17.8123038,2
590,Rudviken 7 i Solna Brf,,Blomgatan 4,16961,Solna,Solna kommun,Stockholms län,59.3590370,18.0069941,2
591,Blomgården Brf,,Blomgatan 12,16960,Solna,Solna kommun,Stockholms län,59.3596413,18.0074313,2
592,Obelisken 3 Brf,,Blekingegatan 38,11662,Stockholm,Stockholms kommun,Stockholms län,59.3105405,18.0757440,2
593,Bottnakarlen 1 Brf,,Björnsonsgatan 299E,16846,Blackeberg,Stockholms kommun,Stockholms län,59.3483402,17.8780618,2
594,Norrmannen Brf,,Björnsonsgatan 138,16847,Blackeberg,Stockholms kommun,Stockholms län,59.3487379,17.8796092,2
595,Norrmannen 2 Brf,,Björnsonsgatan 116,16844,Blackeberg,Stockholms kommun,Stockholms län,59.3477968,17.8780010,2
596,Bjurholmsparken Brf,,Bjurholmsplan 23,11661,Stockholm,Stockholms kommun,Stockholms län,59.3097833,18.0812971,2
597,Harven 58 Brf,,Bjurholmsplan 17,11661,Stockholm,Stockholms kommun,Stockholms län,59.3096509,18.0802957,2
598,Brf Gjutaren 16,,Birkagatan 28,11336,Stockholm,Stockholms kommun,Stockholms län,59.3411270,18.0355845,2
599,Östergård Brf,,Birkagatan 1,11340,Stockholm,Stockholms kommun,Stockholms län,59.3394488,18.0321640,2
601,Ingemarshov Brf,,Birger Jarlsgatan,11356,Stockholm,Stockholms kommun,Stockholms län,59.3450047,18.0633241,2
602,Beckasinen 2 Brf,,Birger Jarlsgatan 114,11355,Stockholm,Stockholms kommun,Stockholms län,59.3484443,18.0602376,2
603,Trivselhem nr 102 Brf,,Birger Jarlsgatan 113A,11355,Stockholm,Stockholms kommun,Stockholms län,59.3491313,18.0589985,2
604,Morkullan nr 32 Brf,,Birger Jarlsgatan 112,11420,Stockholm,Stockholms kommun,Stockholms län,59.3480428,18.0606252,2
606,Birger Jarl 109 Brf,,Birger Jarlsgatan 109A&C,11355,Stockholm,Stockholms kommun,Stockholms län,59.3486929,18.0594175,2
607,Morkullan nr 6 Brf,,Birger Jarlsgatan 106B,11420,Stockholm,Stockholms kommun,Stockholms län,59.3474745,18.0617544,2
608,Bolinders Port Brf,,Birger Dahlerus väg,17669,Järfälla kommun,Järfälla kommun,Stockholms län,59.4552892,17.7993186,2
609,Statyetten 4,,Bildhuggarvägen 31,12144,Stockholm,Stockholms kommun,Stockholms län,59.2952315,18.0744073,2
610,Bergsundsklippan Brf,,Bergsundsgatan 14,11736,Stockholm,Stockholms kommun,Stockholms län,59.3169639,18.0287149,2
611,Bergsunds Strand 34-38 Brf,,Bergsunds Strand 34-38,11738,Stockholm,Stockholms kommun,Stockholms län,59.3155702,18.0314840,2
612,Kyrksjölöten Brf,,Bergslagsvägen,16855,Stockholm,Stockholms kommun,Stockholms län,59.3439389,17.9027808,2
613,Brf Bergsfallet 10,,Bergsgatan 53,11230,Stockholm,Stockholms kommun,Stockholms län,59.3307607,18.0364639,2
614,Morellträdet 9 i Stockholm Brf,,Bergsgatan 51,11212,Stockholm,Stockholms kommun,Stockholms län,59.3306662,18.0371541,2
616,Kattfoten Mindre nr 11,,Bastugatan 42,11851,Stockholm,Stockholms kommun,Stockholms län,59.3200529,18.0580798,2
617,Skogskanten Brf,,Barrskogsvägen 1,13546,Bollmora,Tyresö kommun,Stockholms län,59.2396340,18.2173267,2
618,Färgarloftet Brf,,Barnängs Tvärgränd 5,11638,Stockholm,Stockholms kommun,Stockholms län,59.3081710,18.0913655,2
619,Brf Vegaparken,,Barents väg 36,13658,Vega,Haninge kommun,Stockholms län,59.1840354,18.1260252,2
620,Brobyggaren 5 i Stockholm Brf,,Baltzar von Platens Gata 5,11235,Stockholm,Stockholms kommun,Stockholms län,59.3289889,18.0313839,2
621,Pontonjärgården 12 Brf,,Baltzar von Platens Gata 4,11235,Stockholm,Stockholms kommun,Stockholms län,59.3287282,18.0316740,2
622,Brf Lyngåsa 13 Dalarö,,Baldersvägen,13771,Dalarö,Haninge kommun,Stockholms län,59.1357688,18.4181011,2
624,Essingestupet 18 Brf,,Badstrandsvägen 30,11265,Stockholm,Stockholms kommun,Stockholms län,59.3215839,17.9892817,2
626,The View Brf,,Augustendalsvägen 23,13152,Nacka,Nacka kommun,Stockholms län,59.3171981,18.1615167,2
627,Älgskyttarne 1 Brf,,Atterbomsvägen 60,11257,Stockholm,Stockholms kommun,Stockholms län,59.3294533,18.0023629,2
628,Knallhatten 1 Brf,,Askrikegatan 5,11529,Stockholm,Stockholms kommun,Stockholms län,59.3451107,18.0954229,2
629,Artilleriberget 10 Brf,,Artillerigatan 85,11531,Stockholm,Stockholms kommun,Stockholms län,59.3422764,18.0875405,2
630,Orren 5 Brf,,Artillerigatan 63,11443,Stockholm,Stockholms kommun,Stockholms län,59.3396866,18.0851879,2
631,Malmgården Brf,,Artillerigatan 57,11443,Stockholm,Stockholms kommun,Stockholms län,59.3391791,18.0847902,2
632,Sjöjungfrun Brf,,Artillerigatan 40,11445,Stockholm,Stockholms kommun,Stockholms län,59.3362274,18.0828319,2
633,Laboratoriet Brf,,Armégatan 9,17169,Västra skogen,Solna kommun,Stockholms län,59.3521302,18.0046552,2
634,Asken i Huddinge,,Apelvägen 1,14146,Huddinge,Huddinge kommun,Stockholms län,59.2324284,17.9922133,2
635,Brf Lunden 1 i Mörtnäs Hagar,,Annelundsstigen 3,13936,Mörtnäs,Värmdö kommun,Stockholms län,59.3140941,18.4352993,2
636,Annedalsterrassen 1 Brf,,Annedalsvägen 49-53,16871,Stockholm,Stockholms kommun,Stockholms län,59.3650350,17.9488358,2
637,Baltic & Torg Brf,,Annedalsvägen,16871,Stockholm,Stockholms kommun,Stockholms län,59.3646572,17.9498634,2
638,Ankdammen 33 Brf,,Ankdammsgatan 33,17167,Solna,Solna kommun,Stockholms län,59.3576083,17.9869596,2
639,Alströmergatan 49 Brf,,Alströmergatan 49,11247,Stockholm,Stockholms kommun,Stockholms län,59.3364325,18.0263487,2
640,Ankaret 23 Brf,,Alströmergatan 35,11248,Stockholm,Stockholms kommun,Stockholms län,59.3354299,18.0296024,2
643,Föreläsningen 9 Brf,,Alingsåsvägen 54,12148,Stockholm,Stockholms kommun,Stockholms län,59.2935010,18.1061300,2
644,Balen 3 Brf,,Adlerbethsgatan,11256,Stockholm,Stockholms kommun,Stockholms län,59.3313603,18.0036933,2
646,Ryttartorpet 6 Brf,,Abrahamsbergsvägen,16830,Stockholm,Stockholms kommun,Stockholms län,59.3369573,17.9526824,2
